start=new Date('2022-02-17T00:00:00.000Z').valueOf();
sats=[{"TLE_LINE1":"1 44731U 19074U   22047.56296071 -.00000020  00000-0  17581-4 0  9990","MEAN_MOTION_DOT":"-0.00000020","PERIAPSIS":"546.074","MEAN_MOTION_DDOT":"0.0000000000000","RCS_SIZE":"LARGE","MEAN_MOTION":"15.06394778","REV_AT_EPOCH":"12552","EPHEMERIS_TYPE":"0","CENTER_NAME":"EARTH","EPOCH":"2022-02-16T13:30:39.805344","REF_FRAME":"TEME","OBJECT_TYPE":"PAYLOAD","DECAY_DATE":null,"APOAPSIS":"548.385","ELEMENT_SET_NO":"999","MEAN_ANOMALY":"296.1714","CLASSIFICATION_TYPE":"U","PERIOD":"95.592","MEAN_ELEMENT_THEORY":"SGP4","RA_OF_ASC_NODE":"0.1362","OBJECT_ID":"2019-074U","ARG_OF_PERICENTER":"63.9446","FILE":"3302216","BSTAR":"0.00001758100000","SEMIMAJOR_AXIS":"6925.365","OBJECT_NAME":"STARLINK-1026","SITE":"AFETR","COUNTRY_CODE":"US","NORAD_CAT_ID":"44731","ECCENTRICITY":"0.00016680","GP_ID":"196099475","INCLINATION":"53.0551","TLE_LINE2":"2 44731  53.0551   0.1362 0001668  63.9446 296.1714 15.06394778125520","TIME_SYSTEM":"UTC","LAUNCH_DATE":"2019-11-11"},{"INCLINATION":"53.0552","TLE_LINE2":"2 44732  53.0552  19.9007 0001656  57.0191 303.0957 15.06396768125083","TIME_SYSTEM":"UTC","LAUNCH_DATE":"2019-11-11","GP_ID":"196129088","FILE":"3302660","BSTAR":"0.00000446780000","SEMIMAJOR_AXIS":"6925.358","MEAN_ELEMENT_THEORY":"SGP4","RA_OF_ASC_NODE":"19.9007","ARG_OF_PERICENTER":"57.0191","OBJECT_ID":"2019-074V","COUNTRY_CODE":"US","SITE":"AFETR","NORAD_CAT_ID":"44732","ECCENTRICITY":"0.00016560","OBJECT_NAME":"STARLINK-1027","DECAY_DATE":null,"APOAPSIS":"548.370","ELEMENT_SET_NO":"999","EPOCH":"2022-02-16T14:47:36.521952","REF_FRAME":"TEME","OBJECT_TYPE":"PAYLOAD","CLASSIFICATION_TYPE":"U","PERIOD":"95.592","MEAN_ANOMALY":"303.0957","MEAN_MOTION_DOT":"-0.00000215","PERIAPSIS":"546.077","MEAN_MOTION_DDOT":"0.0000000000000","TLE_LINE1":"1 44732U 19074V   22047.61639493 -.00000215  00000-0  44678-5 0  9990","EPHEMERIS_TYPE":"0","CENTER_NAME":"EARTH","RCS_SIZE":"LARGE","MEAN_MOTION":"15.06396768","REV_AT_EPOCH":"12508"},{"GP_ID":"196130339","INCLINATION":"53.0552","LAUNCH_DATE":"2019-11-11","TIME_SYSTEM":"UTC","TLE_LINE2":"2 44733  53.0552 358.7333 0001923  56.8091 303.3082 15.06396506125401","RA_OF_ASC_NODE":"358.7333","MEAN_ELEMENT_THEORY":"SGP4","OBJECT_ID":"2019-074W","ARG_OF_PERICENTER":"56.8091","BSTAR":"-0.00007469600000","FILE":"3302660","SEMIMAJOR_AXIS":"6925.359","OBJECT_NAME":"STARLINK-1028","COUNTRY_CODE":"US","SITE":"AFETR","ECCENTRICITY":"0.00019230","NORAD_CAT_ID":"44733","EPOCH":"2022-02-16T21:07:07.261824","OBJECT_TYPE":"PAYLOAD","REF_FRAME":"TEME","APOAPSIS":"548.556","DECAY_DATE":null,"ELEMENT_SET_NO":"999","MEAN_ANOMALY":"303.3082","PERIOD":"95.592","CLASSIFICATION_TYPE":"U","TLE_LINE1":"1 44733U 19074W   22047.87994516 -.00001394  00000-0 -74696-4 0  9991","PERIAPSIS":"545.893","MEAN_MOTION_DOT":"-0.00001394","MEAN_MOTION_DDOT":"0.0000000000000","MEAN_MOTION":"15.06396506","RCS_SIZE":"LARGE","REV_AT_EPOCH":"12540","EPHEMERIS_TYPE":"0","CENTER_NAME":"EARTH"},{"SITE":"AFETR","COUNTRY_CODE":"US","NORAD_CAT_ID":"44734","ECCENTRICITY":"0.00015550","OBJECT_NAME":"STARLINK-1029","FILE":"3302660","BSTAR":"0.00072270000000","SEMIMAJOR_AXIS":"6925.294","RA_OF_ASC_NODE":"278.6515","MEAN_ELEMENT_THEORY":"SGP4","ARG_OF_PERICENTER":"63.2348","OBJECT_ID":"2019-074X","INCLINATION":"53.0543","LAUNCH_DATE":"2019-11-11","TIME_SYSTEM":"UTC","TLE_LINE2":"2 44734  53.0543 278.6515 0001555  63.2348 296.8800 15.06417656126508","GP_ID":"196130090","EPHEMERIS_TYPE":"0","CENTER_NAME":"EARTH","RCS_SIZE":"LARGE","MEAN_MOTION":"15.06417656","REV_AT_EPOCH":"12650","PERIAPSIS":"546.083","MEAN_MOTION_DOT":"0.00010504","MEAN_MOTION_DDOT":"0.0000000000000","TLE_LINE1":"1 44734U 19074X   22047.89471613  .00010504  00000-0  72270-3 0  9998","PERIOD":"95.591","CLASSIFICATION_TYPE":"U","MEAN_ANOMALY":"296.8800","APOAPSIS":"548.236","DECAY_DATE":null,"ELEMENT_SET_NO":"999","EPOCH":"2022-02-16T21:28:23.473632","OBJECT_TYPE":"PAYLOAD","REF_FRAME":"TEME"},{"REF_FRAME":"TEME","OBJECT_TYPE":"PAYLOAD","EPOCH":"2022-02-16T14:58:14.153952","ELEMENT_SET_NO":"999","DECAY_DATE":null,"APOAPSIS":"548.507","MEAN_ANOMALY":"305.8546","CLASSIFICATION_TYPE":"U","PERIOD":"95.593","TLE_LINE1":"1 44735U 19074Y   22047.62377493 -.00000572  00000-0 -19513-4 0  9999","MEAN_MOTION_DDOT":"0.0000000000000","MEAN_MOTION_DOT":"-0.00000572","PERIAPSIS":"545.997","REV_AT_EPOCH":"12508","MEAN_MOTION":"15.06387532","RCS_SIZE":"LARGE","CENTER_NAME":"EARTH","EPHEMERIS_TYPE":"0","GP_ID":"196128838","TLE_LINE2":"2 44735  53.0538  19.8694 0001812  54.2611 305.8546 15.06387532125084","TIME_SYSTEM":"UTC","LAUNCH_DATE":"2019-11-11","INCLINATION":"53.0538","ARG_OF_PERICENTER":"54.2611","OBJECT_ID":"2019-074Y","MEAN_ELEMENT_THEORY":"SGP4","RA_OF_ASC_NODE":"19.8694","SEMIMAJOR_AXIS":"6925.387","BSTAR":"-0.00001951300000","FILE":"3302660","OBJECT_NAME":"STARLINK-1030","NORAD_CAT_ID":"44735","ECCENTRICITY":"0.00018120","COUNTRY_CODE":"US","SITE":"AFETR"},{"OBJECT_NAME":"STARLINK-1031","COUNTRY_CODE":"US","SITE":"AFETR","NORAD_CAT_ID":"44736","ECCENTRICITY":"0.00017830","RA_OF_ASC_NODE":"19.8129","MEAN_ELEMENT_THEORY":"SGP4","OBJECT_ID":"2019-074Z","ARG_OF_PERICENTER":"57.3402","BSTAR":"0.00020772000000","FILE":"3302660","SEMIMAJOR_AXIS":"6925.364","GP_ID":"196129588","INCLINATION":"53.0562","TIME_SYSTEM":"UTC","LAUNCH_DATE":"2019-11-11","TLE_LINE2":"2 44736  53.0562  19.8129 0001783  57.3402 302.7759 15.06395015125092","MEAN_MOTION":"15.06395015","RCS_SIZE":"LARGE","REV_AT_EPOCH":"12509","EPHEMERIS_TYPE":"0","CENTER_NAME":"EARTH","TLE_LINE1":"1 44736U 19074Z   22047.63851719  .00002813  00000-0  20772-3 0  9995","PERIAPSIS":"545.994","MEAN_MOTION_DOT":"0.00002813","MEAN_MOTION_DDOT":"0.0000000000000","MEAN_ANOMALY":"302.7759","PERIOD":"95.592","CLASSIFICATION_TYPE":"U","EPOCH":"2022-02-16T15:19:27.885216","OBJECT_TYPE":"PAYLOAD","REF_FRAME":"TEME","APOAPSIS":"548.464","DECAY_DATE":null,"ELEMENT_SET_NO":"999"},{"MEAN_ANOMALY":"303.7042","PERIOD":"95.593","CLASSIFICATION_TYPE":"U","EPOCH":"2022-02-16T15:35:23.175456","OBJECT_TYPE":"PAYLOAD","REF_FRAME":"TEME","APOAPSIS":"548.498","DECAY_DATE":null,"ELEMENT_SET_NO":"999","MEAN_MOTION":"15.06392039","RCS_SIZE":"LARGE","REV_AT_EPOCH":"12509","EPHEMERIS_TYPE":"0","CENTER_NAME":"EARTH","TLE_LINE1":"1 44737U 19074AA  22047.64957379 -.00000412  00000-0 -87533-5 0  9991","PERIAPSIS":"545.978","MEAN_MOTION_DOT":"-0.00000412","MEAN_MOTION_DDOT":"0.0000000000000","GP_ID":"196129840","INCLINATION":"53.0554","LAUNCH_DATE":"2019-11-11","TIME_SYSTEM":"UTC","TLE_LINE2":"2 44737  53.0554  19.7639 0001820  56.4121 303.7042 15.06392039125098","OBJECT_NAME":"STARLINK-1032","SITE":"AFETR","COUNTRY_CODE":"US","ECCENTRICITY":"0.00018200","NORAD_CAT_ID":"44737","RA_OF_ASC_NODE":"19.7639","MEAN_ELEMENT_THEORY":"SGP4","OBJECT_ID":"2019-074AA","ARG_OF_PERICENTER":"56.4121","BSTAR":"-0.00000875330000","FILE":"3302660","SEMIMAJOR_AXIS":"6925.373"},{"OBJECT_NAME":"STARLINK-1033","ECCENTRICITY":"0.00015510","NORAD_CAT_ID":"44738","SITE":"AFETR","COUNTRY_CODE":"US","OBJECT_ID":"2019-074AB","ARG_OF_PERICENTER":"60.9545","MEAN_ELEMENT_THEORY":"SGP4","RA_OF_ASC_NODE":"18.6243","SEMIMAJOR_AXIS":"6925.368","FILE":"3302660","BSTAR":"0.00010348000000","GP_ID":"196130590","TLE_LINE2":"2 44738  53.0574  18.6243 0001551  60.9545 299.1600 15.06393738125120","TIME_SYSTEM":"UTC","LAUNCH_DATE":"2019-11-11","INCLINATION":"53.0574","REV_AT_EPOCH":"12512","RCS_SIZE":"LARGE","MEAN_MOTION":"15.06393738","CENTER_NAME":"EARTH","EPHEMERIS_TYPE":"0","TLE_LINE1":"1 44738U 19074AB  22047.90022033  .00001260  00000-0  10348-3 0  9999","MEAN_MOTION_DDOT":"0.0000000000000","MEAN_MOTION_DOT":"0.00001260","PERIAPSIS":"546.159","MEAN_ANOMALY":"299.1600","CLASSIFICATION_TYPE":"U","PERIOD":"95.593","REF_FRAME":"TEME","OBJECT_TYPE":"PAYLOAD","EPOCH":"2022-02-16T21:36:19.036512","ELEMENT_SET_NO":"999","DECAY_DATE":null,"APOAPSIS":"548.307"},{"CLASSIFICATION_TYPE":"U","PERIOD":"95.379","MEAN_ANOMALY":"272.7633","ELEMENT_SET_NO":"999","DECAY_DATE":null,"APOAPSIS":"538.062","REF_FRAME":"TEME","OBJECT_TYPE":"PAYLOAD","EPOCH":"2022-02-16T07:49:38.222112","CENTER_NAME":"EARTH","EPHEMERIS_TYPE":"0","REV_AT_EPOCH":"12507","RCS_SIZE":"LARGE","MEAN_MOTION":"15.09766795","MEAN_MOTION_DDOT":"0.0000000000000","MEAN_MOTION_DOT":"0.00011560","PERIAPSIS":"535.766","TLE_LINE1":"1 44739U 19074AC  22047.32613683  .00011560  00000-0  72464-3 0  9994","TLE_LINE2":"2 44739  52.9995  16.2562 0001660  87.3547 272.7633 15.09766795125077","LAUNCH_DATE":"2019-11-11","TIME_SYSTEM":"UTC","INCLINATION":"52.9995","GP_ID":"196090494","NORAD_CAT_ID":"44739","ECCENTRICITY":"0.00016600","SITE":"AFETR","COUNTRY_CODE":"US","OBJECT_NAME":"STARLINK-1034","SEMIMAJOR_AXIS":"6915.049","BSTAR":"0.00072464000000","FILE":"3301890","OBJECT_ID":"2019-074AC","ARG_OF_PERICENTER":"87.3547","MEAN_ELEMENT_THEORY":"SGP4","RA_OF_ASC_NODE":"16.2562"},{"EPOCH":"2022-02-16T15:30:05.609664","REF_FRAME":"TEME","OBJECT_TYPE":"PAYLOAD","DECAY_DATE":null,"APOAPSIS":"548.350","ELEMENT_SET_NO":"999","MEAN_ANOMALY":"306.2361","CLASSIFICATION_TYPE":"U","PERIOD":"95.593","TLE_LINE1":"1 44740U 19074AD  22047.64589826  .00002641  00000-0  19616-3 0  9992","MEAN_MOTION_DOT":"0.00002641","PERIAPSIS":"546.119","MEAN_MOTION_DDOT":"0.0000000000000","RCS_SIZE":"LARGE","MEAN_MOTION":"15.06393160","REV_AT_EPOCH":"12509","EPHEMERIS_TYPE":"0","CENTER_NAME":"EARTH","GP_ID":"196129089","INCLINATION":"53.0565","TLE_LINE2":"2 44740  53.0565  19.7706 0001611  53.8777 306.2361 15.06393160125093","LAUNCH_DATE":"2019-11-11","TIME_SYSTEM":"UTC","MEAN_ELEMENT_THEORY":"SGP4","RA_OF_ASC_NODE":"19.7706","OBJECT_ID":"2019-074AD","ARG_OF_PERICENTER":"53.8777","FILE":"3302660","BSTAR":"0.00019616000000","SEMIMAJOR_AXIS":"6925.370","OBJECT_NAME":"STARLINK-1035","SITE":"AFETR","COUNTRY_CODE":"US","NORAD_CAT_ID":"44740","ECCENTRICITY":"0.00016110"}];
